NORAD_CAT_ID,OBJECT_NAME,OBJECT_TYPE,EPOCH,MEAN_MOTION,ECCENTRICITY,INCLINATION,RA_OF_ASC_NODE,ARG_OF_PERICENTER,MEAN_ANOMALY,BSTAR,MEAN_MOTION_DOT,MEAN_MOTION_DDOT,TLE_LINE0,TLE_LINE1,TLE_LINE2,SEMIMAJOR_AXIS,PERIOD,APOGEE,PERIGEE,DECAYED
51136.0,STARLINK-3253,PAYLOAD,2022-06-14 15:31:15,15.08846329,0.0001911,53.2175,302.5584,56.9978,303.1197,9.1195e-05,1.164e-05,0.0,0 STARLINK-3253,1 51136U 22005AJ  22165.64670887  .00001164  00000-0  91195-4 0  9998,2 51136  53.2175 302.5584 0001911  56.9978 303.1197 15.08846329 22806,6917.861,95.437,541.048,538.404,0.0
51136.0,STARLINK-3253,PAYLOAD,2022-06-15 09:00:31,15.08836162,0.0001789,53.2172,299.2879,45.9745,314.1395,-5.0689e-05,-1.095e-05,0.0,0 STARLINK-3253,1 51136U 22005AJ  22166.37536015 -.00001095  00000-0 -50689-4 0  9991,2 51136  53.2172 299.2879 0001789  45.9745 314.1395 15.08836162 24049,6917.892,95.438,540.995,538.52,0.0
51136.0,STARLINK-3253,PAYLOAD,2022-06-15 20:08:13,15.08835553,0.0001825,53.2172,297.2052,53.4651,306.6509,-3.9742e-05,-9.2e-06,0.0,0 STARLINK-3253,1 51136U 22005AJ  22166.83904170 -.00000920  00000-0 -39742-4 0  9996,2 51136  53.2172 297.2052 0001825  53.4651 306.6509 15.08835553 22988,6917.894,95.438,541.021,538.496,0.0
51136.0,STARLINK-3253,PAYLOAD,2022-06-19 11:34:25,15.08836675,0.0001869,53.2159,280.851,51.5881,308.5279,0.00020125,2.916e-05,0.0,0 STARLINK-3253,1 51136U 22005AJ  22170.48223922  .00002916  00000-0  20125-3 0  9990,2 51136  53.2159 280.8510 0001869  51.5881 308.5279 15.08836675 23535,6917.891,95.438,541.049,538.4630000000002,0.0
51136.0,STARLINK-3253,PAYLOAD,2022-06-19 19:31:21,15.0883583,0.0001909,53.2158,279.3639,52.3056,307.8109,6.360199999999999e-05,7.24e-06,0.0,0 STARLINK-3253,1 51136U 22005AJ  22170.81344031  .00000724  00000-0  63602-4 0  9995,2 51136  53.2158 279.3639 0001909  52.3056 307.8109 15.08835830 23588,6917.893,95.438,541.0790000000002,538.438,0.0
51136.0,STARLINK-3253,PAYLOAD,2022-06-20 11:25:12,15.08834175,0.0001713,53.2155,276.3904,50.7671,309.3473,-1.067e-05,-4.58e-06,0.0,0 STARLINK-3253,1 51136U 22005AJ  22171.47584297 -.00000458  00000-0 -10670-4 0  9991,2 51136  53.2155 276.3904 0001713  50.7671 309.3473 15.08834175 24814,6917.898,95.438,540.948,538.578,0.0
51136.0,STARLINK-3253,PAYLOAD,2022-06-20 19:22:08,15.08834303,0.0001695,53.2158,274.9032,48.2978,311.8159,-3.2531e-05,-8.06e-06,0.0,0 STARLINK-3253,1 51136U 22005AJ  22171.80704521 -.00000806  00000-0 -32531-4 0  9999,2 51136  53.2158 274.9032 0001695  48.2978 311.8159 15.08834303 23736,6917.898,95.438,540.935,538.59,0.0
51136.0,STARLINK-3253,PAYLOAD,2022-06-21 12:51:22,15.08845764,0.0001713,53.2158,271.632,49.3764,310.7377,0.0001155,1.551e-05,0.0,0 STARLINK-3253,1 51136U 22005AJ  22172.53568181  .00001551  00000-0  11550-3 0  9993,2 51136  53.2158 271.6320 0001713  49.3764 310.7377 15.08845764 24976,6917.863,95.437,540.913,538.543,0.0
51136.0,STARLINK-3253,PAYLOAD,2022-06-21 17:37:32,15.08849666,0.0001754,53.2159,270.7399,48.8996,311.2147,0.00021637,3.158e-05,0.0,0 STARLINK-3253,1 51136U 22005AJ  22172.73440020  .00003158  00000-0  21637-3 0  9998,2 51136  53.2159 270.7399 0001754  48.8996 311.2147 15.08849666 23873,6917.851,95.437,540.929,538.502,0.0
51136.0,STARLINK-3253,PAYLOAD,2022-06-22 12:42:10,15.08838228,0.000181,53.2159,267.1716,40.376,319.7366,0.00015394,2.163e-05,0.0,0 STARLINK-3253,1 51136U 22005AJ  22173.52928654  .00002163  00000-0  15394-3 0  9998,2 51136  53.2159 267.1716 0001810  40.3760 319.7366 15.08838228 25123,6917.886,95.438,541.003,538.499,0.0
51136.0,STARLINK-3253,PAYLOAD,2022-06-22 17:28:19,15.08833632,0.0001805,53.2156,266.2796,48.3501,311.7645,-1.7682e-05,-5.69e-06,0.0,0 STARLINK-3253,1 51136U 22005AJ  22173.72800892 -.00000569  00000-0 -17682-4 0  9996,2 51136  53.2156 266.2796 0001805  48.3501 311.7645 15.08833632 24027,6917.9,95.438,541.014,538.516,0.0
51136.0,STARLINK-3253,PAYLOAD,2022-06-23 12:32:57,15.08844341,0.0001883,53.2157,262.711,48.8967,311.2188,0.00045562,6.971e-05,0.0,0 STARLINK-3253,1 51136U 22005AJ  22174.52288882  .00006971  00000-0  45562-3 0  9992,2 51136  53.2157 262.7110 0001883  48.8967 311.2188 15.08844341 24145,6917.8669999999975,95.437,541.035,538.429,0.0
51136.0,STARLINK-3253,PAYLOAD,2022-06-23 17:19:07,15.08845334,0.0001874,53.2159,261.8189,48.7802,311.3351,0.00047061,7.211e-05,0.0,0 STARLINK-3253,1 51136U 22005AJ  22174.72160892  .00007211  00000-0  47061-3 0  9998,2 51136  53.2159 261.8189 0001874  48.7802 311.3351 15.08845334 25305,6917.864000000001,95.437,541.025,538.433,0.0
51136.0,STARLINK-3253,PAYLOAD,2022-06-24 12:23:44,15.08840015,0.0001905,53.2159,258.2502,48.4944,311.6211,0.00010399,1.367e-05,0.0,0 STARLINK-3253,1 51136U 22005AJ  22175.51648970  .00001367  00000-0  10399-3 0  9994,2 51136  53.2159 258.2502 0001905  48.4944 311.6211 15.08840015 25425,6917.88,95.438,541.063,538.427,0.0
51136.0,STARLINK-3253,PAYLOAD,2022-06-24 17:09:54,15.08839582,0.0001888,53.2158,257.3581,48.4221,311.6933,0.00012307,1.671e-05,0.0,0 STARLINK-3253,1 51136U 22005AJ  22175.71521039  .00001671  00000-0  12307-3 0  9991,2 51136  53.2158 257.3581 0001888  48.4221 311.6933 15.08839582 24325,6917.882,95.438,541.053,538.441,0.0
51136.0,STARLINK-3253,PAYLOAD,2022-06-25 12:14:32,15.08830822,0.0001896,53.216,253.791,51.3002,308.816,-5.893600000000001e-05,-1.226e-05,0.0,0 STARLINK-3253,1 51136U 22005AJ  22176.51009652 -.00001226  00000-0 -58936-4 0  9999,2 51136  53.2160 253.7910 0001896  51.3002 308.8160 15.08830822 25579,6917.908,95.438,541.085,538.462,0.0
51136.0,STARLINK-3253,PAYLOAD,2022-06-25 17:00:41,15.08829846,0.0001906,53.2158,252.8987,50.7239,309.3922,-7.5111e-05,-1.483e-05,0.0,0 STARLINK-3253,1 51136U 22005AJ  22176.70881782 -.00001483  00000-0 -75111-4 0  9991,2 51136  53.2158 252.8987 0001906  50.7239 309.3922 15.08829846 24471,6917.911,95.438,541.095,538.4580000000002,0.0
51136.0,STARLINK-3253,PAYLOAD,2022-06-26 12:05:19,15.08839608,0.0001686999999999,53.2164,249.3305,49.2027,310.9111,0.00013543,1.868e-05,0.0,0 STARLINK-3253,1 51136U 22005AJ  22177.50369401  .00001868  00000-0  13543-3 0  9994,2 51136  53.2164 249.3305 0001687  49.2027 310.9111 15.08839608 25721,6917.882,95.438,540.914,538.58,0.0
51136.0,STARLINK-3253,PAYLOAD,2022-06-26 21:37:37,15.08844838,0.0001804,53.2157,247.5461,44.8698,315.244,0.00021371,3.115e-05,0.0,0 STARLINK-3253,1 51136U 22005AJ  22177.90113179  .00003115  00000-0  21371-3 0  9992,2 51136  53.2157 247.5461 0001804  44.8698 315.2440 15.08844838 24657,6917.866,95.437,540.979,538.4830000000002,0.0
51136.0,STARLINK-3253,PAYLOAD,2022-06-27 11:56:06,15.08838249,0.0001799,53.2155,244.8696,43.67100000000001,316.4424,0.00010003,1.304e-05,0.0,0 STARLINK-3253,1 51136U 22005AJ  22178.49729547  .00001304  00000-0  10003-3 0  9997,2 51136  53.2155 244.8696 0001799  43.6710 316.4424 15.08838249 24744,6917.886,95.438,540.995,538.506,0.0
51136.0,STARLINK-3253,PAYLOAD,2022-06-27 13:31:29,15.08837817,0.0001802,53.2154,244.5722,43.8702,316.2433,8.947600000000001e-05,1.136e-05,0.0,0 STARLINK-3253,1 51136U 22005AJ  22178.56353584  .00001136  00000-0  89476-4 0  9993,2 51136  53.2154 244.5722 0001802  43.8702 316.2433 15.08837817 25882,6917.887,95.438,540.999,538.505,0.0
51136.0,STARLINK-3253,PAYLOAD,2022-06-27 21:28:25,15.08839746,0.0001805,53.2154,243.0855,44.6055,315.5082,8.5412e-05,1.071e-05,0.0,0 STARLINK-3253,1 51136U 22005AJ  22178.89473490  .00001071  00000-0  85412-4 0  9992,2 51136  53.2154 243.0855 0001805  44.6055 315.5082 15.08839746 24802,6917.880999999999,95.438,540.995,538.497,0.0
51136.0,STARLINK-3253,PAYLOAD,2022-06-28 11:46:53,15.08844311,0.0001863,53.2152,240.4091,45.4749,314.6395,5.328300000000001e-05,5.6e-06,0.0,0 STARLINK-3253,1 51136U 22005AJ  22179.49089192  .00000560  00000-0  53283-4 0  9994,2 51136  53.2152 240.4091 0001863  45.4749 314.6395 15.08844311 24896,6917.8669999999975,95.437,541.021,538.443,0.0
51136.0,STARLINK-3253,PAYLOAD,2022-06-28 13:22:16,15.0884585,0.0001836,53.2161,240.1115,45.7373,314.377,7.7938e-05,9.53e-06,0.0,0 STARLINK-3253,1 51136U 22005AJ  22179.55713233  .00000953  00000-0  77938-4 0  9990,2 51136  53.2161 240.1115 0001836  45.7373 314.3770 15.08845850 24901,6917.863,95.437,540.998,538.457,0.0
51136.0,STARLINK-3253,PAYLOAD,2022-06-29 10:02:17,15.08833874,0.0001887,53.2158,236.2453,47.6092,312.506,-2.7771e-05,-7.299999999999999e-06,0.0,0 STARLINK-3253,1 51136U 22005AJ  22180.41826148 -.00000730  00000-0 -27771-4 0  9992,2 51136  53.2158 236.2453 0001887  47.6092 312.5060 15.08833874 25033,6917.899,95.438,541.07,538.4590000000002,0.0
51136.0,STARLINK-3253,PAYLOAD,2022-06-29 21:10:00,15.08830784,0.0001906,53.216,234.1643,48.0432,312.0722,-9.2039e-06,-4.35e-06,0.0,0 STARLINK-3253,1 51136U 22005AJ  22180.88194501 -.00000435  00000-0 -92039-5 0  9996,2 51136  53.2160 234.1643 0001906  48.0432 312.0722 15.08830784 25104,6917.909000000002,95.438,541.092,538.455,0.0
51136.0,STARLINK-3253,PAYLOAD,2022-06-30 13:03:51,15.08834,0.0001913,53.2159,231.1905,46.0392,314.0758,-2.8267e-05,-7.38e-06,0.0,0 STARLINK-3253,1 51136U 22005AJ  22181.54434529 -.00000738  00000-0 -28267-4 0  9994,2 51136  53.2159 231.1905 0001913  46.0392 314.0758 15.08834000 25208,6917.899,95.438,541.087,538.44,0.0
51136.0,STARLINK-3253,PAYLOAD,2022-07-01 12:54:38,15.08831315,0.0001919,53.2159,226.7303,45.2966,314.8182,7.6493e-05,9.29e-06,0.0,0 STARLINK-3253,1 51136U 22005AJ  22182.53794781  .00000929  00000-0  76493-4 0  9997,2 51136  53.2159 226.7303 0001919  45.2966 314.8182 15.08831315 26480,6917.906999999997,95.438,541.099,538.444,0.0
51136.0,STARLINK-3253,PAYLOAD,2022-07-02 12:45:25,15.08838019,0.0001973,53.2158,222.27,46.1003,314.0152,8.704100000000001e-05,1.097e-05,0.0,0 STARLINK-3253,1 51136U 22005AJ  22183.53154696  .00001097  00000-0  87041-4 0  9991,2 51136  53.2158 222.2700 0001973  46.1003 314.0152 15.08838019 25502,6917.886,95.438,541.116,538.387,0.0
